CCSDS_OMM_VERS = 2.0
CREATION_DATE  = 
ORIGINATOR     = 

OBJECT_NAME    = 2026-023D
OBJECT_ID      = 2026-023D
CENTER_NAME    = EARTH
REF_FRAME      = TEME
TIME_SYSTEM    = UTC
MEAN_ELEMENT_THEORY = SGP/SGP4

EPOCH          = 2026-02-17T05:13:21.463392
MEAN_MOTION    = 15.22407700
ECCENTRICITY   = .0019155
INCLINATION    = 96.6468
RA_OF_ASC_NODE = 123.5372
ARG_OF_PERICENTER = 198.3628
MEAN_ANOMALY   = 161.6921

EPHEMERIS_TYPE = 0
CLASSIFICATION_TYPE = U
NORAD_CAT_ID   = 67677
ELEMENT_SET_NO = 999
REV_AT_EPOCH   = 173
BSTAR          = .5843E-3
MEAN_MOTION_DOT = .13522E-3
MEAN_MOTION_DDOT = 0

CCSDS_OMM_VERS = 2.0
CREATION_DATE  = 
ORIGINATOR     = 

OBJECT_NAME    = 2026-023E
OBJECT_ID      = 2026-023E
CENTER_NAME    = EARTH
REF_FRAME      = TEME
TIME_SYSTEM    = UTC
MEAN_ELEMENT_THEORY = SGP/SGP4

EPOCH          = 2026-02-17T05:12:24.981120
MEAN_MOTION    = 15.22518016
ECCENTRICITY   = .0019011
INCLINATION    = 96.6361
RA_OF_ASC_NODE = 123.5380
ARG_OF_PERICENTER = 197.6850
MEAN_ANOMALY   = 162.3729

EPHEMERIS_TYPE = 0
CLASSIFICATION_TYPE = U
NORAD_CAT_ID   = 67678
ELEMENT_SET_NO = 999
REV_AT_EPOCH   = 173
BSTAR          = .66905E-3
MEAN_MOTION_DOT = .15545E-3
MEAN_MOTION_DDOT = 0

CCSDS_OMM_VERS = 2.0
CREATION_DATE  = 
ORIGINATOR     = 

OBJECT_NAME    = 2026-023F
OBJECT_ID      = 2026-023F
CENTER_NAME    = EARTH
REF_FRAME      = TEME
TIME_SYSTEM    = UTC
MEAN_ELEMENT_THEORY = SGP/SGP4

EPOCH          = 2026-02-17T05:10:54.714720
MEAN_MOTION    = 15.22652757
ECCENTRICITY   = .0020974
INCLINATION    = 96.6369
RA_OF_ASC_NODE = 126.0348
ARG_OF_PERICENTER = 192.2795
MEAN_ANOMALY   = 167.7935

EPHEMERIS_TYPE = 0
CLASSIFICATION_TYPE = U
NORAD_CAT_ID   = 67679
ELEMENT_SET_NO = 999
REV_AT_EPOCH   = 172
BSTAR          = .80581E-3
MEAN_MOTION_DOT = .18838E-3
MEAN_MOTION_DDOT = 0

CCSDS_OMM_VERS = 2.0
CREATION_DATE  = 
ORIGINATOR     = 

OBJECT_NAME    = 2026-023G
OBJECT_ID      = 2026-023G
CENTER_NAME    = EARTH
REF_FRAME      = TEME
TIME_SYSTEM    = UTC
MEAN_ELEMENT_THEORY = SGP/SGP4

EPOCH          = 2026-02-17T05:11:18.124800
MEAN_MOTION    = 15.22618129
ECCENTRICITY   = .0022542
INCLINATION    = 96.6297
RA_OF_ASC_NODE = 126.0323
ARG_OF_PERICENTER = 188.8501
MEAN_ANOMALY   = 171.2343

EPHEMERIS_TYPE = 0
CLASSIFICATION_TYPE = U
NORAD_CAT_ID   = 67680
ELEMENT_SET_NO = 999
REV_AT_EPOCH   = 172
BSTAR          = .67949E-3
MEAN_MOTION_DOT = .15868E-3
MEAN_MOTION_DDOT = 0

CCSDS_OMM_VERS = 2.0
CREATION_DATE  = 
ORIGINATOR     = 

OBJECT_NAME    = 2026-023H
OBJECT_ID      = 2026-023H
CENTER_NAME    = EARTH
REF_FRAME      = TEME
TIME_SYSTEM    = UTC
MEAN_ELEMENT_THEORY = SGP/SGP4

EPOCH          = 2026-02-16T16:33:55.878912
MEAN_MOTION    = 15.22597278
ECCENTRICITY   = .002246
INCLINATION    = 96.6443
RA_OF_ASC_NODE = 125.5685
ARG_OF_PERICENTER = 190.0290
MEAN_ANOMALY   = 170.0504

EPHEMERIS_TYPE = 0
CLASSIFICATION_TYPE = U
NORAD_CAT_ID   = 67681
ELEMENT_SET_NO = 999
REV_AT_EPOCH   = 164
BSTAR          = .4403E-4
MEAN_MOTION_DOT = .971E-5
MEAN_MOTION_DDOT = 0

CCSDS_OMM_VERS = 2.0
CREATION_DATE  = 
ORIGINATOR     = 

OBJECT_NAME    = 2026-023J
OBJECT_ID      = 2026-023J
CENTER_NAME    = EARTH
REF_FRAME      = TEME
TIME_SYSTEM    = UTC
MEAN_ELEMENT_THEORY = SGP/SGP4

EPOCH          = 2026-02-17T05:10:36.465312
MEAN_MOTION    = 15.22682024
ECCENTRICITY   = .0022756
INCLINATION    = 96.6398
RA_OF_ASC_NODE = 126.0466
ARG_OF_PERICENTER = 185.0303
MEAN_ANOMALY   = 175.0711

EPHEMERIS_TYPE = 0
CLASSIFICATION_TYPE = U
NORAD_CAT_ID   = 67682
ELEMENT_SET_NO = 999
REV_AT_EPOCH   = 172
BSTAR          = .65293E-3
MEAN_MOTION_DOT = .15275E-3
MEAN_MOTION_DDOT = 0

CCSDS_OMM_VERS = 2.0
CREATION_DATE  = 
ORIGINATOR     = 

OBJECT_NAME    = ISS OBJECT XZ
OBJECT_ID      = 1998-067XZ
CENTER_NAME    = EARTH
REF_FRAME      = TEME
TIME_SYSTEM    = UTC
MEAN_ELEMENT_THEORY = SGP/SGP4

EPOCH          = 2026-02-16T15:46:41.060352
MEAN_MOTION    = 15.50110674
ECCENTRICITY   = .0010454
INCLINATION    = 51.6311
RA_OF_ASC_NODE = 176.2115
ARG_OF_PERICENTER = 117.3582
MEAN_ANOMALY   = 242.8472

EPHEMERIS_TYPE = 0
CLASSIFICATION_TYPE = U
NORAD_CAT_ID   = 67683
ELEMENT_SET_NO = 999
REV_AT_EPOCH   = 152
BSTAR          = .68494E-3
MEAN_MOTION_DOT = .39055E-3
MEAN_MOTION_DDOT = 0

CCSDS_OMM_VERS = 2.0
CREATION_DATE  = 
ORIGINATOR     = 

OBJECT_NAME    = GXIBA-1
OBJECT_ID      = 1998-067YA
CENTER_NAME    = EARTH
REF_FRAME      = TEME
TIME_SYSTEM    = UTC
MEAN_ELEMENT_THEORY = SGP/SGP4

EPOCH          = 2026-02-16T15:40:00.847776
MEAN_MOTION    = 15.51081436
ECCENTRICITY   = .0012102
INCLINATION    = 51.6308
RA_OF_ASC_NODE = 176.1816
ARG_OF_PERICENTER = 110.9325
MEAN_ANOMALY   = 249.2961

EPHEMERIS_TYPE = 0
CLASSIFICATION_TYPE = U
NORAD_CAT_ID   = 67684
ELEMENT_SET_NO = 999
REV_AT_EPOCH   = 152
BSTAR          = .12496E-2
MEAN_MOTION_DOT = .74552E-3
MEAN_MOTION_DDOT = 0

CCSDS_OMM_VERS = 2.0
CREATION_DATE  = 
ORIGINATOR     = 

OBJECT_NAME    = CORAL
OBJECT_ID      = 1998-067YB
CENTER_NAME    = EARTH
REF_FRAME      = TEME
TIME_SYSTEM    = UTC
MEAN_ELEMENT_THEORY = SGP/SGP4

EPOCH          = 2026-02-16T15:45:23.142240
MEAN_MOTION    = 15.50278727
ECCENTRICITY   = .0012396
INCLINATION    = 51.6312
RA_OF_ASC_NODE = 176.2061
ARG_OF_PERICENTER = 113.0551
MEAN_ANOMALY   = 247.1746

EPHEMERIS_TYPE = 0
CLASSIFICATION_TYPE = U
NORAD_CAT_ID   = 67685
ELEMENT_SET_NO = 999
REV_AT_EPOCH   = 152
BSTAR          = .77477E-3
MEAN_MOTION_DOT = .44575E-3
MEAN_MOTION_DDOT = 0

CCSDS_OMM_VERS = 2.0
CREATION_DATE  = 
ORIGINATOR     = 

OBJECT_NAME    = ISS OBJECT YC
OBJECT_ID      = 1998-067YC
CENTER_NAME    = EARTH
REF_FRAME      = TEME
TIME_SYSTEM    = UTC
MEAN_ELEMENT_THEORY = SGP/SGP4

EPOCH          = 2026-02-16T14:11:22.659936
MEAN_MOTION    = 15.50464751
ECCENTRICITY   = .0007796
INCLINATION    = 51.6314
RA_OF_ASC_NODE = 176.5206
ARG_OF_PERICENTER = 86.2899
MEAN_ANOMALY   = 273.8981

EPHEMERIS_TYPE = 0
CLASSIFICATION_TYPE = U
NORAD_CAT_ID   = 67686
ELEMENT_SET_NO = 999
REV_AT_EPOCH   = 151
BSTAR          = .9042E-3
MEAN_MOTION_DOT = .52403E-3
MEAN_MOTION_DDOT = 0

CCSDS_OMM_VERS = 2.0
CREATION_DATE  = 
ORIGINATOR     = 

OBJECT_NAME    = LEOPARD
OBJECT_ID      = 1998-067YD
CENTER_NAME    = EARTH
REF_FRAME      = TEME
TIME_SYSTEM    = UTC
MEAN_ELEMENT_THEORY = SGP/SGP4

EPOCH          = 2026-02-16T15:45:55.392768
MEAN_MOTION    = 15.50209521
ECCENTRICITY   = .000784
INCLINATION    = 51.6316
RA_OF_ASC_NODE = 176.2085
ARG_OF_PERICENTER = 89.2385
MEAN_ANOMALY   = 270.9502

EPHEMERIS_TYPE = 0
CLASSIFICATION_TYPE = U
NORAD_CAT_ID   = 67687
ELEMENT_SET_NO = 999
REV_AT_EPOCH   = 144
BSTAR          = .76465E-3
MEAN_MOTION_DOT = .43795E-3
MEAN_MOTION_DDOT = 0

CCSDS_OMM_VERS = 2.0
CREATION_DATE  = 
ORIGINATOR     = 

OBJECT_NAME    = ISS OBJECT YE
OBJECT_ID      = 1998-067YE
CENTER_NAME    = EARTH
REF_FRAME      = TEME
TIME_SYSTEM    = UTC
MEAN_ELEMENT_THEORY = SGP/SGP4

EPOCH          = 2026-02-16T15:44:38.329152
MEAN_MOTION    = 15.50385572
ECCENTRICITY   = .0007765
INCLINATION    = 51.6315
RA_OF_ASC_NODE = 176.2033
ARG_OF_PERICENTER = 86.9328
MEAN_ANOMALY   = 273.2550

EPHEMERIS_TYPE = 0
CLASSIFICATION_TYPE = U
NORAD_CAT_ID   = 67688
ELEMENT_SET_NO = 999
REV_AT_EPOCH   = 144
BSTAR          = .83591E-3
MEAN_MOTION_DOT = .48248E-3
MEAN_MOTION_DDOT = 0

